,LSTRNM,postcode,DISTRICT,lat,lon
0,Aalmoezenierstraat,2000,Antwerpen,51.2141268,4.4006563
1,Admiraal de Boisotstraat,2000,Antwerpen,51.2066655,4.3928622
2,Adriaan Brouwerstraat,2000,Antwerpen,51.2275702,4.4034598
3,Allewaertstraat,2000,Antwerpen,51.2076452,4.3943019
4,Ambtmanstraat,2000,Antwerpen,51.2224327,4.4059231
5,Amerikalei,2000,Antwerpen,51.2044393,4.3891239
6,Amsterdamstraat,2000,Antwerpen,51.2311839,4.403533
7,Ankerrui,2000,Antwerpen,51.2270542,4.4114621
8,Apostelstraat,2000,Antwerpen,51.22012,4.4133381
9,Arenbergstraat,2000,Antwerpen,51.2152839,4.406907
10,Armeduivelstraat,2000,Antwerpen,51.2162415,4.4079581
11,Arsenaalstraat,2000,Antwerpen,51.2154241,4.3937532
12,August Michielsstraat,2000,Antwerpen,51.2316406,4.4094473
13,Augustijnenstraat,2000,Antwerpen,51.2164272,4.3990177
14,Baeckelmansstraat,2000,Antwerpen,51.2151815,4.4126724
15,Baron Dhanislaan,2000,Antwerpen,51.2059999,4.3902723
16,Bataviastraat,2000,Antwerpen,51.2302212,4.4040475
17,Beddenstraat,2000,Antwerpen,51.2193138,4.403419
18,Beeldhouwersstraat,2000,Antwerpen,51.207548,4.3949471
19,Beggaardenstraat,2000,Antwerpen,51.2194338,4.4050931
20,Begijnenstraat,2000,Antwerpen,51.2118162,4.4009387
21,Begijnenvest,2000,Antwerpen,51.2115214,4.4060933
22,Belegstraat,2000,Antwerpen,51.2058773,4.3935239
23,Bergstraat,2000,Antwerpen,51.2184447,4.4002982
24,Bervoetstraat,2000,Antwerpen,51.2120469,4.4020937
25,Binnenvaartstraat,2000,Antwerpen,51.2318899,4.413771
26,Blauwbroekstraat,2000,Antwerpen,51.2265423,4.4022418
27,Blauwmoezelstraat,2000,Antwerpen,51.2206445,4.4010743
28,Blauwtorenplein,2000,Antwerpen,51.212753,4.409466
29,Blindestraat,2000,Antwerpen,51.2226901,4.40692
30,Bogaardestraat,2000,Antwerpen,51.2152029,4.4003651
31,Bolivarplaats,2000,Antwerpen,51.20426085,4.388563025341311
32,Bollandusstraat,2000,Antwerpen,51.2108404,4.4059776
33,Bombaystraat,2000,Antwerpen,51.2350055,4.4093985
34,Bonapartedok,2000,Antwerpen,51.2286723,4.403203777731063
35,Bontwerkersplaats,2000,Antwerpen,51.221708750000005,4.404420065050421
36,Boogkeers,2000,Antwerpen,51.2141521,4.4048988
37,Bordeauxstraat,2000,Antwerpen,51.2309685,4.4091632
38,Borzestraat,2000,Antwerpen,51.220015,4.4062839
39,Boterhamstraat,2000,Antwerpen,51.225055,4.4073161
40,Bourlastraat,2000,Antwerpen,51.2124295,4.4075922
41,Bouwmeestersstraat,2000,Antwerpen,51.2076294,4.3965238
42,Brabantstraat,2000,Antwerpen,51.2111356,4.4059016
43,Braderijstraat,2000,Antwerpen,51.2221681,4.3997689
44,Braziliëstraat,2000,Antwerpen,51.2313725,4.4039724
45,Brederodestraat,2000,Antwerpen,51.203835,4.392123
46,Bredestraat_AN,2000,Antwerpen,51.2144658,4.4020721
47,Bresstraat,2000,Antwerpen,51.2072179,4.3980413
48,Britselei,2000,Antwerpen,51.2110477,4.407482
49,Brouwersvliet,2000,Antwerpen,51.2268948,4.4034265
50,Bullinckplaats,2000,Antwerpen,51.2222531,4.3992227
51,Burchtgracht,2000,Antwerpen,51.2228694,4.3989265
52,Cadixstraat,2000,Antwerpen,51.2333544,4.4128528
53,Cassiersstraat,2000,Antwerpen,51.226287,4.4149517
54,Cellebroedersstraat,2000,Antwerpen,51.2188957,4.4122333
55,Cockerillkaai,2000,Antwerpen,51.2121604,4.3897684
56,Coppenolstraat,2000,Antwerpen,51.2218588,4.4037039
57,Coquilhatstraat,2000,Antwerpen,51.209147,4.3975569
58,Crauwelengang,2000,Antwerpen,51.2254427,4.401616
59,De Burburestraat,2000,Antwerpen,51.2087076,4.3926201
60,De Gerlachekaai,2000,Antwerpen,51.2101261,4.3875697
61,De Vrièrestraat,2000,Antwerpen,51.2091013,4.3976855
62,De Waghemakerestraat,2000,Antwerpen,51.2282332,4.4157031
63,D'Herbouvillekaai,2000,Antwerpen,51.204114,4.3759972
64,Dinantstraat,2000,Antwerpen,51.2301695,4.4027426
65,Driehespenstraat,2000,Antwerpen,51.2227432,4.3994241
66,Dries,2000,Antwerpen,51.2252279,4.403502
67,Drukkerijstraat,2000,Antwerpen,51.2168854,4.3993338
68,Duboisstraat,2000,Antwerpen,51.2286401,4.414085
69,Edward Pecherstraat,2000,Antwerpen,51.2077289,4.3894397
70,Eiermarkt,2000,Antwerpen,51.2193138,4.403419
71,Eikenstraat,2000,Antwerpen,51.2189996,4.4103605
72,Ellermanstraat,2000,Antwerpen,51.2298008,4.4137284
73,Emiel Banningstraat,2000,Antwerpen,51.2067523,4.3907545
74,Engelse Beurs,2000,Antwerpen,51.2223195,4.4039137
75,Entrepotkaai,2000,Antwerpen,51.2293662,4.411428
76,Entrepotplaats,2000,Antwerpen,51.2276256,4.4116268
77,Ernest Van Dijckkaai,2000,Antwerpen,51.2221353,4.3977233
78,Everdijstraat,2000,Antwerpen,51.2165171,4.4027075
79,Falconplein,2000,Antwerpen,51.2268818,4.4054976
80,Falconpoort,2000,Antwerpen,51.2254746,4.4051426
81,Falconrui,2000,Antwerpen,51.2255509,4.4092829
82,Fortuinstraat_AN,2000,Antwerpen,51.2146252,4.3941968
83,Franckenstraat,2000,Antwerpen,51.2153664,4.3982894
84,Franklin Rooseveltplaats,2000,Antwerpen,51.21974175,4.418030237555012
85,Frankrijklei,2000,Antwerpen,51.2114801,4.4079181
86,Frans Halsplein,2000,Antwerpen,51.2209229,4.4118057
87,Geefsstraat,2000,Antwerpen,51.2183604,4.4025391
88,Generaal Belliardstraat,2000,Antwerpen,51.2269858,4.4071074
89,Gentplaats,2000,Antwerpen,51.206285,4.3868957
90,Genuastraat,2000,Antwerpen,51.2339126,4.4110675
91,Geulincxstraat,2000,Antwerpen,51.2269997,4.4146846
92,Geuzenstraat,2000,Antwerpen,51.2118036,4.397189
93,Gierstraat,2000,Antwerpen,51.2183058,4.399815
94,Gijzelaarsstraat,2000,Antwerpen,51.2061978,4.3885091
95,Gildekamersstraat,2000,Antwerpen,51.2209435,4.3991385
96,Gillisplaats,2000,Antwerpen,51.2082879,4.3890257
97,Giststraat,2000,Antwerpen,51.22714,4.403436
98,Godefriduskaai,2000,Antwerpen,51.2280913,4.4089858
99,Goedehoopstraat,2000,Antwerpen,51.21406,4.3935802
100,Gorterstraat,2000,Antwerpen,51.2242378,4.3998356
101,Graaf van Egmontstraat,2000,Antwerpen,51.211936,4.3941021
102,Graaf van Hoornestraat,2000,Antwerpen,51.2083254,4.3930069
103,Graanmarkt,2000,Antwerpen,51.2159306,4.4079924
104,Gramayestraat,2000,Antwerpen,51.2183632,4.4069315
105,Gratiekapelstraat,2000,Antwerpen,51.2223281,4.4085323
106,Groendalstraat,2000,Antwerpen,51.2175472,4.4047049
107,Groenkerkhofstraat,2000,Antwerpen,51.2186649,4.4008495
108,Groenplaats,2000,Antwerpen,51.219181750000004,4.401251869659557
109,Grote Goddaard,2000,Antwerpen,51.2219318,4.404608
110,Grote Kauwenberg,2000,Antwerpen,51.2228015,4.4113629
111,Grote Koraalberg,2000,Antwerpen,51.22258455,4.400951927211127
112,Grote Kraaiwijk,2000,Antwerpen,51.2248468,4.4003088
113,Grote Markt,2000,Antwerpen,51.221171299999995,4.400351445406165
114,Grote Pieter Potstraat,2000,Antwerpen,51.2205616,4.3973901
115,Guldenberg,2000,Antwerpen,51.2242814,4.3995624
116,Haarstraat,2000,Antwerpen,51.2204508,4.3979182
117,Halfmanengang,2000,Antwerpen,51.2236263,4.410045
118,Hamerplaats,2000,Antwerpen,51.2246255,4.4080253
119,Hamerstraat,2000,Antwerpen,51.2247394,4.4081391
120,Handschoenmarkt,2000,Antwerpen,51.2206407,4.4004574
121,Hanzestedenplaats,2000,Antwerpen,51.228125,4.4052329
122,Happaertstraat,2000,Antwerpen,51.2152492,4.4018487
123,Haverstraat,2000,Antwerpen,51.2206131,4.3972027
124,Heilige Geeststraat,2000,Antwerpen,51.2187288,4.3981925
125,Hendrik Conscienceplein,2000,Antwerpen,51.22094585000001,4.4041661526423335
126,Henri Van Heurckstraat,2000,Antwerpen,51.2138792,4.4072392
127,Hessenbrug,2000,Antwerpen,51.2252074,4.4096859
128,Hessenplein,2000,Antwerpen,51.2263637,4.4097186
129,Hessenstraatje,2000,Antwerpen,51.225849,4.4092081
130,Hofstraat,2000,Antwerpen,51.2224463,4.4011426
131,Hoofdkerkstraat,2000,Antwerpen,51.2212899,4.403641
132,Hoogstraat,2000,Antwerpen,51.2199681,4.3984628
133,Hoornstraat,2000,Antwerpen,51.223789,4.4072353
134,Hopland,2000,Antwerpen,51.216551,4.4092373
135,Houtenbrug,2000,Antwerpen,51.2243269,4.4041662
136,Huidevettersstraat,2000,Antwerpen,51.2173433,4.4054884
137,Huikstraat,2000,Antwerpen,51.2245634,4.4038491
138,IJzerenpoortkaai,2000,Antwerpen,51.2104516,4.3879774
139,IJzerenwaag,2000,Antwerpen,51.2168494,4.4008519
140,Indiëstraat,2000,Antwerpen,51.234434,4.4096052
141,Israelietenstraat,2000,Antwerpen,51.2194272,4.4053193
142,Italiëlei,2000,Antwerpen,51.2243881,4.4151632
143,Jan Blomstraat,2000,Antwerpen,51.2199104,4.4008067
144,Jan van Gentstraat,2000,Antwerpen,51.2049612,4.3882217
145,Jan van Lierstraat,2000,Antwerpen,51.2215733,4.4079638
146,Jeruzalemstraat,2000,Antwerpen,51.2221268,4.4031196
147,Jezuïetenrui,2000,Antwerpen,51.2207979,4.4039075
148,Jezusstraat,2000,Antwerpen,51.21917955000001,4.413925232692316
149,Jodenstraat,2000,Antwerpen,51.2169446,4.4059841
150,Jordaenskaai,2000,Antwerpen,51.2227734,4.3981396
151,Jozef de Hasquestraat,2000,Antwerpen,51.2246136,4.4076298
152,Kaasbrug,2000,Antwerpen,51.2249951,4.4048214
153,Kaasrui,2000,Antwerpen,51.221092,4.4025737
154,Kaasstraat,2000,Antwerpen,51.2214521,4.3981602
155,Kammenstraat,2000,Antwerpen,51.216857,4.4010532
156,Kapucinessenstraat,2000,Antwerpen,51.2111985,4.4039673
157,Karel Rogierstraat,2000,Antwerpen,51.2097213,4.3949853
158,Kasteelpleinstraat,2000,Antwerpen,51.2114011,4.4010144
159,Kasteelstraat,2000,Antwerpen,51.2068099,4.3915395
160,Kattendijkbrug,2000,Antwerpen,51.2352908,4.4033312
161,Kattendijkdok,2000,Antwerpen,51.2351559,4.4069145
162,Kattendijkdok-Oostkaai,2000,Antwerpen,51.2311227,4.4091629
163,Kattendijkdok-Westkaai,2000,Antwerpen,51.231216,4.4050917
164,Kattenstraat,2000,Antwerpen,51.2217334,4.4108281
165,Kauwenstraatje,2000,Antwerpen,51.2239613,4.4124306
166,Keistraat,2000,Antwerpen,51.2252236,4.4021809
167,Keizerstraat,2000,Antwerpen,51.2218357,4.4055115
168,Kelderstraat,2000,Antwerpen,51.2161849,4.4070812
169,Kempenstraat,2000,Antwerpen,51.2317054,4.4160849
170,Kempischdok-Zuidkaai,2000,Antwerpen,51.2320433,4.4154426
171,Kempischdok,2000,Antwerpen,51.2349078,4.4160251
172,Kempischdok-Westkaai,2000,Antwerpen,51.2311861,4.4128661
173,Ketelstraat,2000,Antwerpen,51.2162123,4.4067105
174,Kiliaanstraat,2000,Antwerpen,51.2109892,4.4070872
175,Kipdorp,2000,Antwerpen,51.2210683,4.4066063
176,Kipdorpbrug,2000,Antwerpen,51.220031,4.4160631
177,Kipdorpvest,2000,Antwerpen,51.2179888,4.4142552
178,Klapdorp,2000,Antwerpen,51.2242901,4.4042019
179,Kleine Goddaard,2000,Antwerpen,51.2229911,4.4034488
180,Kleine Kauwenberg,2000,Antwerpen,51.2240785,4.4119656
181,Kleine Koraalberg,2000,Antwerpen,51.2228118,4.4007753
182,Kleine Kraaiwijk,2000,Antwerpen,51.2246959,4.4003503
183,Kleine Markt,2000,Antwerpen,51.2156084,4.4021671
184,Kleine Pieter Potstraat,2000,Antwerpen,51.2201093,4.39808
185,Kloosterstraat_AN,2000,Antwerpen,51.2154351,4.3947229
186,Koeikensgracht,2000,Antwerpen,51.2272194,4.4127774
187,Koepoortbrug,2000,Antwerpen,51.2236463,4.4031563
188,Kolveniersstraat,2000,Antwerpen,51.217736,4.4103345
189,Komedieplaats,2000,Antwerpen,51.2164457,4.4054756
190,Kommekensstraat,2000,Antwerpen,51.2251893,4.4044303
191,Koninginnestraat,2000,Antwerpen,51.21153,4.4057569
192,Koningstraat,2000,Antwerpen,51.2214175,4.4091382
193,Koolkaai,2000,Antwerpen,51.2249515,4.4000702
194,Kopstraatje,2000,Antwerpen,51.2170321,4.4003858
195,Korte Brilstraat,2000,Antwerpen,51.2238133,4.4082953
196,Korte Doornikstraat,2000,Antwerpen,51.2233513,4.4005425
197,Korte Gasthuisstraat,2000,Antwerpen,51.217242,4.4040917
198,Korte Klarenstraat,2000,Antwerpen,51.2192419,4.4064453
199,Korte Koepoortstraat,2000,Antwerpen,51.2213299,4.402521
200,Korte Nieuwstraat,2000,Antwerpen,51.2203173,4.4040886
201,Korte Noordstraat,2000,Antwerpen,51.2240454,4.4049966
202,Korte Riddersstraat,2000,Antwerpen,51.2175958,4.3979356
203,Korte Schipperskapelstraat,2000,Antwerpen,51.226037,4.4027171
204,Korte Sint-Annastraat,2000,Antwerpen,51.2210349,4.4136013
205,Korte Vlierstraat,2000,Antwerpen,51.2150768,4.3959452
206,Korte Winkelstraat,2000,Antwerpen,51.221294,4.4146291
207,Korte Zeevaartstraat,2000,Antwerpen,51.2275691,4.4037412
208,Krabbenstraat,2000,Antwerpen,51.2223553,4.3986811
209,Kribbestraat,2000,Antwerpen,51.230069,4.410123
210,Kriekenstraat,2000,Antwerpen,51.2268121,4.4015525
211,Kromme-Elleboogstraat,2000,Antwerpen,51.2171635,4.394844
212,Kronenburgstraat,2000,Antwerpen,51.2118138,4.3991319
213,Kuipersstraat,2000,Antwerpen,51.2223675,4.3993286
214,Lakenstraat,2000,Antwerpen,51.2091357,4.3881539
215,Lambermontplaats,2000,Antwerpen,51.2070962,4.3915137
216,Lambermontstraat,2000,Antwerpen,51.2106595,4.3977932
217,Lammekensraamveld,2000,Antwerpen,51.2158139,4.4107071
218,Lange Brilstraat,2000,Antwerpen,51.2238133,4.4082953
219,Lange Doornikstraat,2000,Antwerpen,51.2226052,4.4003576
220,Langegang,2000,Antwerpen,51.2167212,4.4119096
221,Lange Gasthuisstraat,2000,Antwerpen,51.2160317,4.4047926
222,Lange Klarenstraat,2000,Antwerpen,51.218653,4.4080955
223,Lange Koepoortstraat,2000,Antwerpen,51.2226263,4.4023811
224,Lange Nieuwstraat,2000,Antwerpen,51.2199375,4.406264
225,Lange Noordstraat,2000,Antwerpen,51.2245082,4.4068854
226,Lange Riddersstraat,2000,Antwerpen,51.2168095,4.3971249
227,Lange Schipperskapelstraat,2000,Antwerpen,51.2260103,4.4008068
228,Lange Sint-Annastraat,2000,Antwerpen,51.2209758,4.4139245
229,Lange Vlierstraat,2000,Antwerpen,51.2141837,4.3977386
230,Lange Winkelstraat,2000,Antwerpen,51.2228241,4.4124259
231,Lansstraat,2000,Antwerpen,51.2243061,4.40761
232,Ledeganckkaai,2000,Antwerpen,51.2078634,4.3841164
233,Leeuw van Vlaanderenstraat,2000,Antwerpen,51.2209189,4.4036579
234,Leeuwenstraat,2000,Antwerpen,51.2186156,4.3993375
235,Leguit,2000,Antwerpen,51.2254547,4.4037132
236,Leopold de Waelplaats,2000,Antwerpen,51.2098016,4.394559
237,Leopold de Waelstraat,2000,Antwerpen,51.2082189,4.3925145
238,Leopoldplaats,2000,Antwerpen,51.2125496,4.4074069
239,Leopoldstraat,2000,Antwerpen,51.2153443,4.4068281
240,Leuvenstraat,2000,Antwerpen,51.2120297,4.3900678
241,Leysstraat,2000,Antwerpen,51.218321,4.413464100305548
242,Lijnwaadmarkt,2000,Antwerpen,51.2206083,4.4024436
243,Lombardenstraat,2000,Antwerpen,51.2169958,4.4025126
244,Lombardenvest,2000,Antwerpen,51.2177072,4.4010166
245,Londenbrug,2000,Antwerpen,51.2311505,4.407024
246,Londenstraat,2000,Antwerpen,51.2311505,4.407024
247,Louiza-Marialei,2000,Antwerpen,51.2133682,4.4116556
248,Louizastraat,2000,Antwerpen,51.2115219,4.4049839
249,Luikstraat,2000,Antwerpen,51.2103432,4.3896049
250,Maalderijstraat,2000,Antwerpen,51.2209669,4.4002434
251,Maarschalk Gérardstraat,2000,Antwerpen,51.2124626,4.4036467
252,Madrasstraat,2000,Antwerpen,51.2355344,4.411061
253,Makelarenplaats,2000,Antwerpen,51.2127585,4.3942969
254,Marguerie Schuilhaven,2000,Antwerpen,51.2275249,4.400095940026846
255,Maria Pijpelincxstraat,2000,Antwerpen,51.2160959,4.40923
256,Maria-Henriëttalei_AN,2000,Antwerpen,51.2118874,4.4091516
257,Markgravestraat,2000,Antwerpen,51.2201101,4.407497
258,Marnixplaats,2000,Antwerpen,51.2103091,4.3969541
259,Mechelseplein,2000,Antwerpen,51.2126144,4.4051875
260,Mechelsesteenweg,2000,Antwerpen,51.2109411,4.4077194
261,Meir,2000,Antwerpen,51.2183922,4.4050973
262,Meirbrug,2000,Antwerpen,51.2184891,4.4044245
263,Meistraat,2000,Antwerpen,51.2158055,4.4105626
264,Melkmarkt,2000,Antwerpen,51.2208644,4.4026215
265,Minderbroedersrui,2000,Antwerpen,51.221483,4.4050686
266,Minderbroedersstraat,2000,Antwerpen,51.2228591,4.4052349
267,Molenbergstraat,2000,Antwerpen,51.2207079,4.4155489
268,Montevideostraat,2000,Antwerpen,51.2329631,4.4039472
269,Montignystraat,2000,Antwerpen,51.2056262,4.3924086
270,Morgenstraat,2000,Antwerpen,51.2263479,4.410802
271,Moriaanstraat,2000,Antwerpen,51.2213534,4.4031185
272,Moriaanstraatje,2000,Antwerpen,51.2215627,4.4031637
273,Muntstraat,2000,Antwerpen,51.2169583,4.3973129
274,Museumstraat,2000,Antwerpen,51.2091885,4.3933583
275,Mutsaardstraat,2000,Antwerpen,51.2230258,4.4059672
276,Namenstraat,2000,Antwerpen,51.208133,4.384774
277,Napelsstraat,2000,Antwerpen,51.2299701,4.4110638
278,Napoleonkaai,2000,Antwerpen,51.2298051,4.4064363
279,Nassaubrug,2000,Antwerpen,51.22940035,4.405485952376696
280,Nassaustraat,2000,Antwerpen,51.2297749,4.4052577
281,Nationalestraat,2000,Antwerpen,51.2186618,4.4010644
282,Nieuwe Gang,2000,Antwerpen,51.2250879,4.4108481
283,Noorderlaan,2000,Antwerpen,51.2307022,4.4132661
284,Nosestraat,2000,Antwerpen,51.2244214,4.4007601
285,Oever,2000,Antwerpen,51.2177345,4.3966239
286,Oostendekaai,2000,Antwerpen,51.2287048,4.4055331
287,Orgelstraat,2000,Antwerpen,51.2157696,4.4079343
288,Orteliuskaai,2000,Antwerpen,51.2261429,4.4003211
289,Ossenmarkt,2000,Antwerpen,51.2218554,4.412985
290,Otto Veniusstraat,2000,Antwerpen,51.2180905,4.4127427
291,Oudaan,2000,Antwerpen,51.2157784,4.403142
292,Oude Beurs,2000,Antwerpen,51.2215182,4.402219
293,Oude Koornmarkt,2000,Antwerpen,51.2193099,4.4004917
294,Oude Waag,2000,Antwerpen,51.2218977,4.4033027
295,Oudeleeuwenrui,2000,Antwerpen,51.2268274,4.4060156
296,Oudemansstraat,2000,Antwerpen,51.2254445,4.4017972
297,Oudevaartplaats,2000,Antwerpen,51.2141523,4.4090766
298,Paardenmarkt,2000,Antwerpen,51.2247054,4.4129634
299,Pachtstraat,2000,Antwerpen,51.2146857,4.3965286
300,Pacificatiestraat,2000,Antwerpen,51.2061565,4.3903463
301,Palingbrug,2000,Antwerpen,51.2224939,4.3986206
302,Pandstraat,2000,Antwerpen,51.2177072,4.4010166
303,Papenstraatje,2000,Antwerpen,51.2199104,4.4008067
304,Paradijsstraat,2000,Antwerpen,51.2214124,4.4121074
305,Parochiaanstraat,2000,Antwerpen,51.2202476,4.4115207
306,Pastoor Visschersplein,2000,Antwerpen,51.2166159,4.397330475541762
307,Paternosterstraat,2000,Antwerpen,51.2210002,4.4070704
308,Pelgrimstraat,2000,Antwerpen,51.2200004,4.3999327
309,Peterseliestraat,2000,Antwerpen,51.223964,4.3996255
310,Pieter van Hobokenstraat,2000,Antwerpen,51.2220209,4.4118019
311,Plaatsnijdersstraat,2000,Antwerpen,51.2079799,4.3960118
312,Plantinkaai,2000,Antwerpen,51.2164346,4.393691
313,Pompstraat,2000,Antwerpen,51.2161325,4.3979595
314,Pottenbrug,2000,Antwerpen,51.2225516,4.404234
315,Pourbusstraat,2000,Antwerpen,51.2084686,4.3912687
316,Predikerinnenstraat,2000,Antwerpen,51.2239018,4.4045976
317,Prekersstraat,2000,Antwerpen,51.213922,4.3975838
318,Prinsesstraat,2000,Antwerpen,51.2209855,4.4101037
319,Prinsstraat,2000,Antwerpen,51.2222836,4.4096882
320,Prior Peltiersplaats,2000,Antwerpen,51.2234406,4.4017608
321,Pruynenstraat,2000,Antwerpen,51.219844,4.4072868
322,Raapstraat,2000,Antwerpen,51.2237888,4.4053503
323,Repenstraat,2000,Antwerpen,51.2225593,4.3992595
324,Reyndersstraat,2000,Antwerpen,51.2191901,4.3991172
325,Riemstraat,2000,Antwerpen,51.2135482,4.3931233
326,Rigastraat,2000,Antwerpen,51.2321968,4.4128599
327,Rijke Beukelaarstraat,2000,Antwerpen,51.2158605,4.396712
328,Rijkenhoek,2000,Antwerpen,51.2176765,4.3947788
329,Rijnkaai,2000,Antwerpen,51.229804,4.402136
330,Rijnpoortvest,2000,Antwerpen,51.2248054,4.4139884
331,Rodestraat,2000,Antwerpen,51.2232735,4.4138198
332,Rosier,2000,Antwerpen,51.2139415,4.4030996
333,Roskamgang,2000,Antwerpen,51.2249841,4.4089295
334,Rouaanse Kaai,2000,Antwerpen,51.2268202,4.4011398
335,Ruckersplaats,2000,Antwerpen,51.2224361,4.3999038
336,Salm-Salmstraat,2000,Antwerpen,51.2153664,4.3982894
337,Sandersstraatje,2000,Antwerpen,51.219205,4.395968
338,Sasdok-Zuidkaai,2000,Antwerpen,51.2347061,4.4050699
339,Saucierstraat,2000,Antwerpen,51.2241034,4.3994565
340,Schaliënstraat,2000,Antwerpen,51.2083161,4.3851522
341,Scheldeken,2000,Antwerpen,51.21799,4.3955894
342,Scheldestraat,2000,Antwerpen,51.2105865,4.3970399
343,Schermersstraat,2000,Antwerpen,51.2121137,4.4037889
344,Schildersstraat,2000,Antwerpen,51.208862,4.3957605
345,Schippersstraat,2000,Antwerpen,51.226544,4.4043227
346,Schoenmakersstraat,2000,Antwerpen,51.2215329,4.4017293
347,Schoenmarkt,2000,Antwerpen,51.2184364,4.4039295
348,Schoytestraat,2000,Antwerpen,51.2144658,4.4020721
349,Schrijnwerkersstraat,2000,Antwerpen,51.2177536,4.4037482
350,Schuttershofstraat,2000,Antwerpen,51.216476,4.4079198
351,Sint-Aldegondiskaai,2000,Antwerpen,51.2279271,4.4037167
352,Sint-Andriesplaats,2000,Antwerpen,51.2149991,4.396478989121776
353,Sint-Andriesstraat,2000,Antwerpen,51.2158264,4.3989961
354,Sint-Annatunnel,2000,Antwerpen,51.2187673,4.3957998
355,Sint-Antoniusstraat,2000,Antwerpen,51.2157652,4.4004028
356,Sint-Jacobsmarkt,2000,Antwerpen,51.2206541,4.4100572
357,Sint-Jacobstraat,2000,Antwerpen,51.220606,4.4099191
358,Sint-Jansvliet,2000,Antwerpen,51.2189311,4.3955561
359,Sint-Jorispoort,2000,Antwerpen,51.2125824,4.4066241
360,Sint-Katelijnevest,2000,Antwerpen,51.2189386,4.4050689
361,Sint-Laureiskaai,2000,Antwerpen,51.2297354,4.405685
362,Sint-Maartenstraat,2000,Antwerpen,51.2157711,4.407999
363,Sint-Michielskaai,2000,Antwerpen,51.2152288,4.3928188
364,Sint-Michielstraat,2000,Antwerpen,51.2162391,4.3943126
365,Sint-Nicolaasplaats,2000,Antwerpen,51.2200206,4.4057997
366,Sint-Paulusplaats,2000,Antwerpen,51.2254385,4.4015495
367,Sint-Paulusstraat,2000,Antwerpen,51.2243396,4.4024149
368,Sint-Pieter-en-Paulusstraat,2000,Antwerpen,51.2204945,4.4035057
369,Sint-Pieterstraat,2000,Antwerpen,51.219861,4.4026464
370,Sint-Pietersvliet,2000,Antwerpen,51.2253882,4.4013241
371,Sint-Rochusstraat_AN,2000,Antwerpen,51.21248,4.3993182
372,Sleutelstraat,2000,Antwerpen,51.216203,4.4005592
373,Spanjaardsteeg,2000,Antwerpen,51.2276053,4.4066265
374,Spanjepandsteeg,2000,Antwerpen,51.2220878,4.4000697
375,Stadswaag,2000,Antwerpen,51.22393385,4.4072571293554095
376,Steegsken,2000,Antwerpen,51.2174683,4.3959606
377,Steenbergstraat,2000,Antwerpen,51.2147613,4.3977564
378,Steenhouwersvest,2000,Antwerpen,51.2178072,4.3991793
379,Steenplein,2000,Antwerpen,51.2213599,4.3970692
380,Stijfselrui,2000,Antwerpen,51.2257107,4.4109737
381,Stijfselstraat,2000,Antwerpen,51.2263479,4.410802
382,Stoelstraat,2000,Antwerpen,51.2230736,4.4018464
383,Stoofstraat,2000,Antwerpen,51.2191214,4.3969309
384,Stoopstraat,2000,Antwerpen,51.2139201,4.411097
385,Sudermanstraat,2000,Antwerpen,51.2196601,4.4042096
386,Suikerrui,2000,Antwerpen,51.2207394,4.399103
387,Tabakvest,2000,Antwerpen,51.2127766,4.4077456
388,Tavernierkaai,2000,Antwerpen,51.2272936,4.4013889
389,Tempelstraat,2000,Antwerpen,51.2202006,4.4000979
390,Teniersplaats,2000,Antwerpen,51.218228,4.4142564
391,Terninckgang,2000,Antwerpen,51.2111741,4.4035101
392,Terninckstraat,2000,Antwerpen,51.2119226,4.4028659
393,Theaterplein,2000,Antwerpen,51.21504315,4.409923814722937
394,Theodoor Van Rijswijckplaats,2000,Antwerpen,51.2168054,4.4000931
395,Timmerwerfstraat,2000,Antwerpen,51.212563,4.3910911
396,Tolstraat,2000,Antwerpen,51.2096124,4.3998356
397,Toog,2000,Antwerpen,51.2247165,4.4096371
398,Torfbrug,2000,Antwerpen,51.2210862,4.4016199
399,Tunnelplaats,2000,Antwerpen,51.2268167,4.4131676
400,Twaalfmaandenstraat,2000,Antwerpen,51.2184535,4.4058488
401,Ulrikstraat,2000,Antwerpen,51.2250253,4.4126434
402,Van Aerdtstraat,2000,Antwerpen,51.2276908,4.4158712
403,Van Boendalestraat,2000,Antwerpen,51.2217185,4.4159517
404,Van Craesbeeckstraat,2000,Antwerpen,51.2135146,4.3969058
405,Van Cuyckstraat,2000,Antwerpen,51.2165394,4.4140228
406,Van der Sweepstraat,2000,Antwerpen,51.2068025,4.3858354
407,Van Meterenkaai,2000,Antwerpen,51.2265824,4.4006582
408,Van Schoonbekeplein,2000,Antwerpen,51.2275572,4.4052181
409,Varkensmarkt,2000,Antwerpen,51.2249894,4.4073318
410,Veemarkt,2000,Antwerpen,51.223907,4.400008
411,Vekestraat,2000,Antwerpen,51.2242168,4.4105967
412,Venusstraat,2000,Antwerpen,51.2233448,4.4089263
413,Verbindingsdok-Oostkaai,2000,Antwerpen,51.2309836,4.4078686
414,Verbindingsdok-Westkaai,2000,Antwerpen,51.2298872,4.4065478
415,Verbondstraat,2000,Antwerpen,51.2102304,4.4003012
416,Verbrande-Entrepotstraat,2000,Antwerpen,51.2162792,4.3942163
417,Verlatstraat,2000,Antwerpen,51.2096938,4.394091
418,Verschansingstraat,2000,Antwerpen,51.2083774,4.3912996
419,Verversrui,2000,Antwerpen,51.2256352,4.4047185
420,Verviersstraat,2000,Antwerpen,51.2089506,4.3871242
421,Veurnekaai,2000,Antwerpen,51.2291897,4.4051015
422,Vingerlingstraat,2000,Antwerpen,51.2261955,4.4030206
423,Visserskaai,2000,Antwerpen,51.2101261,4.3875697
424,Vlaaikensgang,2000,Antwerpen,51.2198422,4.3997007
425,Vlaamsekaai,2000,Antwerpen,51.2098121,4.3908763
426,Vlaanderenstraat,2000,Antwerpen,51.2166957,4.3946665
427,Vlasmarkt,2000,Antwerpen,51.219817,4.3971914
428,Vleeshouwersstraat,2000,Antwerpen,51.2224478,4.3995483
429,Vleeshuisstraat,2000,Antwerpen,51.2227422,4.398481
430,Vleminckstraat,2000,Antwerpen,51.2198625,4.4035617
431,Vleminckveld,2000,Antwerpen,51.2136612,4.4044905
432,Volkstraat,2000,Antwerpen,51.2118833,4.3969877
433,Vorstermanstraat,2000,Antwerpen,51.2105904,4.3940391
434,Vrijdagmarkt,2000,Antwerpen,51.2183208,4.399108
435,Vrijdagmarktstraatje,2000,Antwerpen,51.2182021,4.3982541
436,Vrijheidstraat,2000,Antwerpen,51.210699,4.3986614
437,Waalsekaai,2000,Antwerpen,51.207483,4.3862753
438,Waaslandtunnel,2000,Antwerpen,51.2269574,4.4049475
439,Wapenstraat,2000,Antwerpen,51.2110767,4.3895236
440,Wapper,2000,Antwerpen,51.2174337,4.4087891
441,Welvaartstraat,2000,Antwerpen,51.2102148,4.4001592
442,Wiegstraat,2000,Antwerpen,51.2175682,4.4041256
443,Wijngaardbrug,2000,Antwerpen,51.2212785,4.4050389
444,Wijngaardstraat,2000,Antwerpen,51.2210948,4.4039625
445,Willem Lepelstraat,2000,Antwerpen,51.2128672,4.3969947
446,Willem Ogierplaats,2000,Antwerpen,51.2220495,4.397919127083332
447,Willem Tellstraat,2000,Antwerpen,51.2148944,4.4069262
448,Wisselstraat,2000,Antwerpen,51.2218932,4.4006873
449,Wolstraat,2000,Antwerpen,51.2215417,4.4026667
450,Zakstraat,2000,Antwerpen,51.2232214,4.3986003
451,Zand,2000,Antwerpen,51.2195605,4.3963149
452,Zeevaartstraat,2000,Antwerpen,51.2270261,4.4096289
453,Zilversmidstraat,2000,Antwerpen,51.2215973,4.3994765
454,Zirkstraat,2000,Antwerpen,51.2227604,4.4019832
455,Zwaardstraat,2000,Antwerpen,51.2164685,4.4003454
456,Zwaluwstraat,2000,Antwerpen,51.2190946,4.4010132
457,Zwanengang,2000,Antwerpen,51.2209835,4.4115929
458,Zwartzustersstraat,2000,Antwerpen,51.2232403,4.4027497
459,Zwedenstraat,2000,Antwerpen,51.2269052,4.4139349
460,Zwijgerstraat,2000,Antwerpen,51.2096369,4.3965326
461,Munthof,2000,Antwerpen,51.2171766,4.3966847
462,Rozenstraat,2000,Antwerpen,51.2214823,4.4128239
463,Vlissingenstraat,2000,Antwerpen,51.2361124,4.4137521
464,Piraeusstraat,2000,Antwerpen,51.2355331,4.4128245
465,Portostraat,2000,Antwerpen,51.2350119,4.4110607
466,Bolivartunnel,2000,Antwerpen,51.2040946,4.3873532
467,Van Eycktunnel,2000,Antwerpen,51.2113907,4.4078473
468,Blauwtorentunnel,2000,Antwerpen,51.21168,4.4092836
469,Gasthuistunnel,2000,Antwerpen,51.212385,4.4077288
470,Calcuttastraat,2000,Antwerpen,51.2344519,4.4080337
471,Tallinnstraat,2000,Antwerpen,,
472,Limaplein,2000,Antwerpen,51.23459545,4.404366551794634
473,Mexicoplein,2000,Antwerpen,51.2360819,4.408464950120925
474,Michel De Braeystraat,2000,Antwerpen,51.2062257,4.3810118
475,Jan Vanhoenackerstraat,2000,Antwerpen,51.2052621,4.3837113
476,Léon Stynenstraat,2000,Antwerpen,51.2058604,4.3849162
477,Jos Smolderenstraat,2000,Antwerpen,51.2056518,4.3824547
478,Paul Smekensplein,2000,Antwerpen,51.2261717,4.406129
479,Johan Westerlundplein,2000,Antwerpen,51.22636125,4.406590034453876
480,Falco de Lampageplein,2000,Antwerpen,,
481,Edith Kielpad,2000,Antwerpen,51.205996,4.3853388
482,Henri Storckpad,2000,Antwerpen,,
483,André Delvauxpad,2000,Antwerpen,51.2056518,4.3824547
484,Nicole Van Goethempad,2000,Antwerpen,51.2036896,4.3824841
485,Maarten Lutherplein,2000,Antwerpen,,
486,Jan Van Asperenpad,2000,Antwerpen,51.2036896,4.3824841
487,Jef Cassiersstraat,2000,Antwerpen,51.2041471,4.3811323
488,Senne Rouffaerplein,2000,Antwerpen,,
489,Roland Verhavertpad,2000,Antwerpen,51.2046703,4.3799757
490,Frans Buyensstraat,2000,Antwerpen,51.2046177,4.379831
491,Emile Thielenspad,2000,Antwerpen,51.2043818,4.3792629
492,Ann Salenspad,2000,Antwerpen,51.2052528,4.3869354
493,Zillionpad,2000,Antwerpen,51.2053159,4.385958
494,Catharina Pepijnstraat,2000,Antwerpen,51.2315881,4.4094482
495,Lode Sebregtsparkje,2000,Antwerpen,,
496,Jos Brabantstunnel,2000,Antwerpen,51.2169002,4.4147823
497,Jeanne Brabantstunnel,2000,Antwerpen,51.2175734,4.4149025
498,Clara Peetershof,2000,Antwerpen,,
499,Panamarenkoplein,2000,Antwerpen,51.20540375,4.382360929974048
500,Leonie Glassplein,2000,Antwerpen,51.2214991,4.3987165
503,André Delvauxstraat,2000,Antwerpen,,
504,Henri Storckstraat,2000,Antwerpen,,
505,Edith Kielstraat,2000,Antwerpen,,
506,Nicole Van Goethemstraat,2000,Antwerpen,,
507,Houtdok-Zuidkaai,2000,Antwerpen,51.2361114,4.4128233
